[{"OBJECT_NAME":"STARLINK-11618 [DTC]","OBJECT_ID":"2025-048C","EPOCH":"2026-03-30T03:56:34.259424","MEAN_MOTION":15.70912676,"ECCENTRICITY":0.0001763,"INCLINATION":43.0003,"RA_OF_ASC_NODE":196.2721,"ARG_OF_PERICENTER":269.1027,"MEAN_ANOMALY":90.9638,"EPHEMERIS_TYPE":0,"CLASSIFICATION_TYPE":"U","NORAD_CAT_ID":63185,"ELEMENT_SET_NO":999,"REV_AT_EPOCH":6173,"BSTAR":0.0017508,"MEAN_MOTION_DOT":0.00231276,"MEAN_MOTION_DDOT":0},{"OBJECT_NAME":"STARLINK-11646 [DTC]","OBJECT_ID":"2025-048D","EPOCH":"2026-03-29T00:13:12.842688","MEAN_MOTION":15.7089638,"ECCENTRICITY":9.91e-5,"INCLINATION":43.0017,"RA_OF_ASC_NODE":203.0828,"ARG_OF_PERICENTER":34.002,"MEAN_ANOMALY":326.0911,"EPHEMERIS_TYPE":0,"CLASSIFICATION_TYPE":"U","NORAD_CAT_ID":63186,"ELEMENT_SET_NO":999,"REV_AT_EPOCH":6156,"BSTAR":0.0022875,"MEAN_MOTION_DOT":0.00304824,"MEAN_MOTION_DDOT":0},{"OBJECT_NAME":"STARLINK-11622 [DTC]","OBJECT_ID":"2025-048E","EPOCH":"2026-03-30T04:57:43.740864","MEAN_MOTION":15.70882743,"ECCENTRICITY":0.0001578,"INCLINATION":43.0001,"RA_OF_ASC_NODE":196.6134,"ARG_OF_PERICENTER":263.6654,"MEAN_ANOMALY":96.4034,"EPHEMERIS_TYPE":0,"CLASSIFICATION_TYPE":"U","NORAD_CAT_ID":63187,"ELEMENT_SET_NO":999,"REV_AT_EPOCH":6174,"BSTAR":0.001628,"MEAN_MOTION_DOT":0.00214307,"MEAN_MOTION_DDOT":0},{"OBJECT_NAME":"STARLINK-11642 [DTC]","OBJECT_ID":"2025-048F","EPOCH":"2026-03-29T00:59:05.513856","MEAN_MOTION":15.70869915,"ECCENTRICITY":0.0002259,"INCLINATION":42.9987,"RA_OF_ASC_NODE":203.34,"ARG_OF_PERICENTER":75.7831,"MEAN_ANOMALY":284.3287,"EPHEMERIS_TYPE":0,"CLASSIFICATION_TYPE":"U","NORAD_CAT_ID":63188,"ELEMENT_SET_NO":999,"REV_AT_EPOCH":6156,"BSTAR":0.0017366,"MEAN_MOTION_DOT":0.00228918,"MEAN_MOTION_DDOT":0},{"OBJECT_NAME":"STARLINK-11639 [DTC]","OBJECT_ID":"2025-048G","EPOCH":"2026-03-30T04:11:51.861984","MEAN_MOTION":15.70946072,"ECCENTRICITY":9.04e-5,"INCLINATION":42.9977,"RA_OF_ASC_NODE":196.3539,"ARG_OF_PERICENTER":65.8747,"MEAN_ANOMALY":294.2216,"EPHEMERIS_TYPE":0,"CLASSIFICATION_TYPE":"U","NORAD_CAT_ID":63189,"ELEMENT_SET_NO":999,"REV_AT_EPOCH":6174,"BSTAR":0.0019548,"MEAN_MOTION_DOT":0.00259525,"MEAN_MOTION_DDOT":0},{"OBJECT_NAME":"STARLINK-11637 [DTC]","OBJECT_ID":"2025-048H","EPOCH":"2026-03-30T04:59:02.981760","MEAN_MOTION":15.70852032,"ECCENTRICITY":9.91e-5,"INCLINATION":43.0001,"RA_OF_ASC_NODE":196.6202,"ARG_OF_PERICENTER":278.3992,"MEAN_ANOMALY":81.6763,"EPHEMERIS_TYPE":0,"CLASSIFICATION_TYPE":"U","NORAD_CAT_ID":63190,"ELEMENT_SET_NO":999,"REV_AT_EPOCH":6174,"BSTAR":0.0017004,"MEAN_MOTION_DOT":0.00223826,"MEAN_MOTION_DDOT":0},{"OBJECT_NAME":"STARLINK-11647 [DTC]","OBJECT_ID":"2025-048J","EPOCH":"2026-03-29T05:10:48.636480","MEAN_MOTION":15.70882681,"ECCENTRICITY":0.0001643,"INCLINATION":43.0001,"RA_OF_ASC_NODE":202.0577,"ARG_OF_PERICENTER":264.2531,"MEAN_ANOMALY":95.815,"EPHEMERIS_TYPE":0,"CLASSIFICATION_TYPE":"U","NORAD_CAT_ID":63191,"ELEMENT_SET_NO":999,"REV_AT_EPOCH":6159,"BSTAR":0.0024333,"MEAN_MOTION_DOT":0.00324881,"MEAN_MOTION_DDOT":0},{"OBJECT_NAME":"STARLINK-11643 [DTC]","OBJECT_ID":"2025-048K","EPOCH":"2026-03-29T23:44:50.276256","MEAN_MOTION":15.70887139,"ECCENTRICITY":0.000148,"INCLINATION":43.0003,"RA_OF_ASC_NODE":197.5456,"ARG_OF_PERICENTER":28.429,"MEAN_ANOMALY":331.6658,"EPHEMERIS_TYPE":0,"CLASSIFICATION_TYPE":"U","NORAD_CAT_ID":63192,"ELEMENT_SET_NO":999,"REV_AT_EPOCH":6171,"BSTAR":0.0024593,"MEAN_MOTION_DOT":0.00328565,"MEAN_MOTION_DDOT":0},{"OBJECT_NAME":"STARLINK-11635 [DTC]","OBJECT_ID":"2025-048L","EPOCH":"2026-03-30T03:48:55.262880","MEAN_MOTION":15.70972909,"ECCENTRICITY":0.0001936,"INCLINATION":43.0008,"RA_OF_ASC_NODE":196.2259,"ARG_OF_PERICENTER":236.7017,"MEAN_ANOMALY":123.3666,"EPHEMERIS_TYPE":0,"CLASSIFICATION_TYPE":"U","NORAD_CAT_ID":63193,"ELEMENT_SET_NO":999,"REV_AT_EPOCH":6174,"BSTAR":0.0029297,"MEAN_MOTION_DOT":0.00396152,"MEAN_MOTION_DDOT":0},{"OBJECT_NAME":"STARLINK-11636 [DTC]","OBJECT_ID":"2025-048M","EPOCH":"2026-03-30T00:00:07.599744","MEAN_MOTION":15.70870666,"ECCENTRICITY":0.000153,"INCLINATION":42.9978,"RA_OF_ASC_NODE":197.6338,"ARG_OF_PERICENTER":34.4275,"MEAN_ANOMALY":325.6692,"EPHEMERIS_TYPE":0,"CLASSIFICATION_TYPE":"U","NORAD_CAT_ID":63194,"ELEMENT_SET_NO":999,"REV_AT_EPOCH":6171,"BSTAR":0.002733,"MEAN_MOTION_DOT":0.00366622,"MEAN_MOTION_DDOT":0},{"OBJECT_NAME":"STARLINK-11631 [DTC]","OBJECT_ID":"2025-048N","EPOCH":"2026-03-30T00:30:42.035904","MEAN_MOTION":15.70883443,"ECCENTRICITY":0.0001064,"INCLINATION":43.0009,"RA_OF_ASC_NODE":197.8025,"ARG_OF_PERICENTER":325.2889,"MEAN_ANOMALY":34.7909,"EPHEMERIS_TYPE":0,"CLASSIFICATION_TYPE":"U","NORAD_CAT_ID":63195,"ELEMENT_SET_NO":999,"REV_AT_EPOCH":6171,"BSTAR":0.0025339,"MEAN_MOTION_DOT":0.00338926,"MEAN_MOTION_DDOT":0},{"OBJECT_NAME":"STARLINK-32946","OBJECT_ID":"2025-048P","EPOCH":"2026-03-30T01:44:00.844800","MEAN_MOTION":15.27610382,"ECCENTRICITY":8.18e-5,"INCLINATION":43.0029,"RA_OF_ASC_NODE":334.2191,"ARG_OF_PERICENTER":272.0571,"MEAN_ANOMALY":88.0187,"EPHEMERIS_TYPE":0,"CLASSIFICATION_TYPE":"U","NORAD_CAT_ID":63196,"ELEMENT_SET_NO":999,"REV_AT_EPOCH":6016,"BSTAR":0.0010092,"MEAN_MOTION_DOT":0.00027638,"MEAN_MOTION_DDOT":0},{"OBJECT_NAME":"STARLINK-32960","OBJECT_ID":"2025-048Q","EPOCH":"2026-03-30T01:07:41.320992","MEAN_MOTION":15.27590474,"ECCENTRICITY":6.2e-5,"INCLINATION":42.9981,"RA_OF_ASC_NODE":330.5186,"ARG_OF_PERICENTER":295.1698,"MEAN_ANOMALY":64.9089,"EPHEMERIS_TYPE":0,"CLASSIFICATION_TYPE":"U","NORAD_CAT_ID":63197,"ELEMENT_SET_NO":999,"REV_AT_EPOCH":6020,"BSTAR":0.0014034,"MEAN_MOTION_DOT":0.0003857,"MEAN_MOTION_DDOT":0},{"OBJECT_NAME":"STARLINK-32904","OBJECT_ID":"2025-048R","EPOCH":"2026-03-30T01:46:19.548768","MEAN_MOTION":15.27614181,"ECCENTRICITY":0.0002126,"INCLINATION":43.0013,"RA_OF_ASC_NODE":329.8561,"ARG_OF_PERICENTER":260.5958,"MEAN_ANOMALY":99.4653,"EPHEMERIS_TYPE":0,"CLASSIFICATION_TYPE":"U","NORAD_CAT_ID":63198,"ELEMENT_SET_NO":999,"REV_AT_EPOCH":6021,"BSTAR":0.0013691,"MEAN_MOTION_DOT":0.00037645,"MEAN_MOTION_DDOT":0},{"OBJECT_NAME":"STARLINK-32931","OBJECT_ID":"2025-048S","EPOCH":"2026-03-30T00:47:20.004288","MEAN_MOTION":15.27586593,"ECCENTRICITY":0.0001566,"INCLINATION":43.002,"RA_OF_ASC_NODE":330.4096,"ARG_OF_PERICENTER":271.8271,"MEAN_ANOMALY":88.2401,"EPHEMERIS_TYPE":0,"CLASSIFICATION_TYPE":"U","NORAD_CAT_ID":63199,"ELEMENT_SET_NO":999,"REV_AT_EPOCH":6020,"BSTAR":0.0012664,"MEAN_MOTION_DOT":0.00034757,"MEAN_MOTION_DDOT":0},{"OBJECT_NAME":"STARLINK-32934","OBJECT_ID":"2025-048T","EPOCH":"2026-03-30T01:55:36.355296","MEAN_MOTION":15.27568601,"ECCENTRICITY":0.0001812,"INCLINATION":43.0029,"RA_OF_ASC_NODE":329.9038,"ARG_OF_PERICENTER":280.1532,"MEAN_ANOMALY":79.9115,"EPHEMERIS_TYPE":0,"CLASSIFICATION_TYPE":"U","NORAD_CAT_ID":63200,"ELEMENT_SET_NO":999,"REV_AT_EPOCH":6021,"BSTAR":0.0010879,"MEAN_MOTION_DOT":0.00029784,"MEAN_MOTION_DDOT":0}]
