STARLINK-11618 [DTC]    
1 63185U 25048C   26089.16428541  .00231276  00000+0  17508-2 0  9991
2 63185  43.0003 196.2721 0001763 269.1027  90.9638 15.70912676 61733
STARLINK-11646 [DTC]    
1 63186U 25048D   26088.00917642  .00304824  00000+0  22875-2 0  9992
2 63186  43.0017 203.0828 0000991  34.0020 326.0911 15.70896380 61569
STARLINK-11622 [DTC]    
1 63187U 25048E   26089.20675626  .00214307  00000+0  16280-2 0  9998
2 63187  43.0001 196.6134 0001578 263.6654  96.4034 15.70882743 61747
STARLINK-11642 [DTC]    
1 63188U 25048F   26088.04103604  .00228918  00000+0  17366-2 0  9991
2 63188  42.9987 203.3400 0002259  75.7831 284.3287 15.70869915 61561
STARLINK-11639 [DTC]    
1 63189U 25048G   26089.17490581  .00259525  00000+0  19548-2 0  9992
2 63189  42.9977 196.3539 0000904  65.8747 294.2216 15.70946072 61748
STARLINK-11637 [DTC]    
1 63190U 25048H   26089.20767340  .00223826  00000+0  17004-2 0  9998
2 63190  43.0001 196.6202 0000991 278.3992  81.6763 15.70852032 61746
STARLINK-11647 [DTC]    
1 63191U 25048J   26088.21584070  .00324881  00000+0  24333-2 0  9992
2 63191  43.0001 202.0577 0001643 264.2531  95.8150 15.70882681 61595
STARLINK-11643 [DTC]    
1 63192U 25048K   26088.98947079  .00328565  00000+0  24593-2 0  9990
2 63192  43.0003 197.5456 0001480  28.4290 331.6658 15.70887139 61714
STARLINK-11635 [DTC]    
1 63193U 25048L   26089.15897295  .00396152  00000+0  29297-2 0  9998
2 63193  43.0008 196.2259 0001936 236.7017 123.3666 15.70972909 61742
STARLINK-11636 [DTC]    
1 63194U 25048M   26089.00008796  .00366622  00000+0  27330-2 0  9998
2 63194  42.9978 197.6338 0001530  34.4275 325.6692 15.70870666 61719
STARLINK-11631 [DTC]    
1 63195U 25048N   26089.02131986  .00338926  00000+0  25339-2 0  9992
2 63195  43.0009 197.8025 0001064 325.2889  34.7909 15.70883443 61712
STARLINK-32946          
1 63196U 25048P   26089.07223200  .00027638  00000+0  10092-2 0  9994
2 63196  43.0029 334.2191 0000818 272.0571  88.0187 15.27610382 60169
STARLINK-32960          
1 63197U 25048Q   26089.04700603  .00038570  00000+0  14034-2 0  9996
2 63197  42.9981 330.5186 0000620 295.1698  64.9089 15.27590474 60203
STARLINK-32904          
1 63198U 25048R   26089.07383737  .00037645  00000+0  13691-2 0  9995
2 63198  43.0013 329.8561 0002126 260.5958  99.4653 15.27614181 60211
STARLINK-32931          
1 63199U 25048S   26089.03287042  .00034757  00000+0  12664-2 0  9994
2 63199  43.0020 330.4096 0001566 271.8271  88.2401 15.27586593 60202
STARLINK-32934          
1 63200U 25048T   26089.08028189  .00029784  00000+0  10879-2 0  9997
2 63200  43.0029 329.9038 0001812 280.1532  79.9115 15.27568601 60210
